start=new Date('2022-02-05T00:00:00.000Z').valueOf();
sats=[{"TLE_LINE1":"1 50190U 21125AL  22035.58335648 -.00096530  00000-0 -68886-3 0  9994","LAUNCH_DATE":"2021-12-18","PERIOD":"91.529","PERIAPSIS":"347.722","INCLINATION":"53.2180","CENTER_NAME":"EARTH","COUNTRY_CODE":"US","OBJECT_ID":"2021-125AL","REF_FRAME":"TEME","DECAY_DATE":null,"MEAN_ELEMENT_THEORY":"SGP4","GP_ID":"195301702","NORAD_CAT_ID":"50190","SEMIMAJOR_AXIS":"6727.680","MEAN_MOTION_DOT":"-0.00096530","SITE":"AFWTR","RA_OF_ASC_NODE":"127.7326","TLE_LINE2":"2 50190  53.2180 127.7326 0002710  16.1691 348.2212 15.73275543  3702","REV_AT_EPOCH":"370","FILE":"3291889","MEAN_MOTION":"15.73275543","APOAPSIS":"351.368","TIME_SYSTEM":"UTC","ARG_OF_PERICENTER":"16.1691","MEAN_ANOMALY":"348.2212","OBJECT_TYPE":"PAYLOAD","CLASSIFICATION_TYPE":"U","EPOCH":"2022-02-04T14:00:01.999872","BSTAR":"-0.00068886000000","EPHEMERIS_TYPE":"0","ELEMENT_SET_NO":"999","RCS_SIZE":"LARGE","OBJECT_NAME":"STARLINK-3268","MEAN_MOTION_DDOT":"0.0000000000000","ECCENTRICITY":"0.00027100"},{"TLE_LINE1":"1 50191U 21125AM  22035.58335648 -.00658311  00000-0 -15062-1 0  9992","LAUNCH_DATE":"2021-12-18","PERIOD":"93.218","PERIAPSIS":"430.776","INCLINATION":"53.2176","CENTER_NAME":"EARTH","COUNTRY_CODE":"US","OBJECT_ID":"2021-125AM","REF_FRAME":"TEME","DECAY_DATE":null,"MEAN_ELEMENT_THEORY":"SGP4","GP_ID":"195301947","SEMIMAJOR_AXIS":"6810.192","NORAD_CAT_ID":"50191","MEAN_MOTION_DOT":"-0.00658311","SITE":"AFWTR","RA_OF_ASC_NODE":"129.7492","REV_AT_EPOCH":"368","TLE_LINE2":"2 50191  53.2176 129.7492 0001882  30.7602   7.1061 15.44769537  3686","FILE":"3291889","MEAN_MOTION":"15.44769537","APOAPSIS":"433.339","TIME_SYSTEM":"UTC","ARG_OF_PERICENTER":"30.7602","MEAN_ANOMALY":"7.1061","CLASSIFICATION_TYPE":"U","OBJECT_TYPE":"PAYLOAD","EPOCH":"2022-02-04T14:00:01.999872","BSTAR":"-0.01506200000000","EPHEMERIS_TYPE":"0","RCS_SIZE":"LARGE","ELEMENT_SET_NO":"999","OBJECT_NAME":"STARLINK-3273","MEAN_MOTION_DDOT":"0.0000000000000","ECCENTRICITY":"0.00018820"},{"MEAN_MOTION_DOT":"-0.00034898","NORAD_CAT_ID":"50192","SEMIMAJOR_AXIS":"6727.850","GP_ID":"195300703","MEAN_ELEMENT_THEORY":"SGP4","DECAY_DATE":null,"APOAPSIS":"351.524","MEAN_MOTION":"15.73215820","FILE":"3291889","REV_AT_EPOCH":"370","TLE_LINE2":"2 50192  53.2178 127.7302 0002689  17.3255 347.8613 15.73215820  3701","RA_OF_ASC_NODE":"127.7302","SITE":"AFWTR","PERIAPSIS":"347.906","PERIOD":"91.532","LAUNCH_DATE":"2021-12-18","TLE_LINE1":"1 50192U 21125AN  22035.58335648 -.00034898  00000-0 -24503-3 0  9993","REF_FRAME":"TEME","OBJECT_ID":"2021-125AN","COUNTRY_CODE":"US","CENTER_NAME":"EARTH","INCLINATION":"53.2178","ELEMENT_SET_NO":"999","RCS_SIZE":"LARGE","OBJECT_NAME":"STARLINK-3259","EPHEMERIS_TYPE":"0","BSTAR":"-0.00024503000000","ECCENTRICITY":"0.00026890","MEAN_MOTION_DDOT":"0.0000000000000","TIME_SYSTEM":"UTC","ARG_OF_PERICENTER":"17.3255","EPOCH":"2022-02-04T14:00:01.999872","OBJECT_TYPE":"PAYLOAD","CLASSIFICATION_TYPE":"U","MEAN_ANOMALY":"347.8613"},{"SITE":"AFWTR","APOAPSIS":"351.203","FILE":"3292087","MEAN_MOTION":"15.73249695","REV_AT_EPOCH":"1044","TLE_LINE2":"2 50193  53.2173 126.0846 0002355  19.3353  72.1252 15.73249695 10446","RA_OF_ASC_NODE":"126.0846","DECAY_DATE":null,"MEAN_MOTION_DOT":"-0.00164509","NORAD_CAT_ID":"50193","SEMIMAJOR_AXIS":"6727.753","GP_ID":"195308179","MEAN_ELEMENT_THEORY":"SGP4","CENTER_NAME":"EARTH","INCLINATION":"53.2173","REF_FRAME":"TEME","OBJECT_ID":"2021-125AP","COUNTRY_CODE":"US","TLE_LINE1":"1 50193U 21125AP  22035.91667824 -.00164509  00000-0 -11880-2 0  9991","PERIAPSIS":"348.034","PERIOD":"91.530","LAUNCH_DATE":"2021-12-18","MEAN_MOTION_DDOT":"0.0000000000000","ECCENTRICITY":"0.00023550","EPHEMERIS_TYPE":"0","BSTAR":"-0.00118800000000","OBJECT_NAME":"STARLINK-3261","RCS_SIZE":"LARGE","ELEMENT_SET_NO":"999","MEAN_ANOMALY":"72.1252","CLASSIFICATION_TYPE":"U","OBJECT_TYPE":"PAYLOAD","EPOCH":"2022-02-04T22:00:00.999936","TIME_SYSTEM":"UTC","ARG_OF_PERICENTER":"19.3353"},{"SITE":"AFWTR","REV_AT_EPOCH":"1043","TLE_LINE2":"2 50194  53.2168 126.4883 0002391  20.2794 322.6647 15.73230610 10433","RA_OF_ASC_NODE":"126.4883","APOAPSIS":"351.282","MEAN_MOTION":"15.73230610","FILE":"3292140","DECAY_DATE":null,"GP_ID":"195308977","MEAN_ELEMENT_THEORY":"SGP4","MEAN_MOTION_DOT":"-0.00149830","NORAD_CAT_ID":"50194","SEMIMAJOR_AXIS":"6727.808","CENTER_NAME":"EARTH","INCLINATION":"53.2168","COUNTRY_CODE":"US","REF_FRAME":"TEME","OBJECT_ID":"2021-125AQ","TLE_LINE1":"1 50194U 21125AQ  22035.83334491 -.00149830  00000-0 -10806-2 0  9991","PERIOD":"91.531","LAUNCH_DATE":"2021-12-18","PERIAPSIS":"348.064","MEAN_MOTION_DDOT":"0.0000000000000","ECCENTRICITY":"0.00023910","BSTAR":"-0.00108060000000","EPHEMERIS_TYPE":"0","OBJECT_NAME":"STARLINK-3269","RCS_SIZE":"LARGE","ELEMENT_SET_NO":"999","MEAN_ANOMALY":"322.6647","OBJECT_TYPE":"PAYLOAD","CLASSIFICATION_TYPE":"U","EPOCH":"2022-02-04T20:00:01.000224","ARG_OF_PERICENTER":"20.2794","TIME_SYSTEM":"UTC"},{"OBJECT_NAME":"STARLINK-3266","RCS_SIZE":"LARGE","ELEMENT_SET_NO":"999","BSTAR":"-0.00071534000000","EPHEMERIS_TYPE":"0","ECCENTRICITY":"0.00023410","MEAN_MOTION_DDOT":"0.0000000000000","TIME_SYSTEM":"UTC","ARG_OF_PERICENTER":"17.8264","CLASSIFICATION_TYPE":"U","OBJECT_TYPE":"PAYLOAD","EPOCH":"2022-02-04T14:00:01.999872","MEAN_ANOMALY":"345.5525","MEAN_ELEMENT_THEORY":"SGP4","GP_ID":"195302447","SEMIMAJOR_AXIS":"6727.613","NORAD_CAT_ID":"50195","MEAN_MOTION_DOT":"-0.00100265","DECAY_DATE":null,"RA_OF_ASC_NODE":"127.7389","TLE_LINE2":"2 50195  53.2169 127.7389 0002341  17.8264 345.5525 15.73299025  3705","REV_AT_EPOCH":"370","MEAN_MOTION":"15.73299025","FILE":"3291889","APOAPSIS":"351.053","SITE":"AFWTR","LAUNCH_DATE":"2021-12-18","PERIOD":"91.527","PERIAPSIS":"347.903","TLE_LINE1":"1 50195U 21125AR  22035.58335648 -.00100265  00000-0 -71534-3 0  9994","COUNTRY_CODE":"US","OBJECT_ID":"2021-125AR","REF_FRAME":"TEME","INCLINATION":"53.2169","CENTER_NAME":"EARTH"},{"APOAPSIS":"351.323","FILE":"3291889","MEAN_MOTION":"15.73281269","REV_AT_EPOCH":"370","TLE_LINE2":"2 50196  53.2177 127.7236 0002668  16.3276 351.8472 15.73281269  3707","RA_OF_ASC_NODE":"127.7236","SITE":"AFWTR","MEAN_MOTION_DOT":"-0.00112667","NORAD_CAT_ID":"50196","SEMIMAJOR_AXIS":"6727.663","GP_ID":"195301203","MEAN_ELEMENT_THEORY":"SGP4","DECAY_DATE":null,"REF_FRAME":"TEME","OBJECT_ID":"2021-125AS","COUNTRY_CODE":"US","CENTER_NAME":"EARTH","INCLINATION":"53.2177","PERIAPSIS":"347.734","PERIOD":"91.528","LAUNCH_DATE":"2021-12-18","TLE_LINE1":"1 50196U 21125AS  22035.58335648 -.00112667  00000-0 -80611-3 0  9990","ECCENTRICITY":"0.00026680","MEAN_MOTION_DDOT":"0.0000000000000","ELEMENT_SET_NO":"999","RCS_SIZE":"LARGE","OBJECT_NAME":"STARLINK-3263","EPHEMERIS_TYPE":"0","BSTAR":"-0.00080611000000","CLASSIFICATION_TYPE":"U","OBJECT_TYPE":"PAYLOAD","EPOCH":"2022-02-04T14:00:01.999872","MEAN_ANOMALY":"351.8472","TIME_SYSTEM":"UTC","ARG_OF_PERICENTER":"16.3276"},{"RA_OF_ASC_NODE":"127.7293","REV_AT_EPOCH":"370","TLE_LINE2":"2 50197  53.2185 127.7293 0002481  24.4665 342.7512 15.73239954  3703","MEAN_MOTION":"15.73239954","FILE":"3291889","APOAPSIS":"351.315","SITE":"AFWTR","GP_ID":"195301452","MEAN_ELEMENT_THEORY":"SGP4","NORAD_CAT_ID":"50197","SEMIMAJOR_AXIS":"6727.781","MEAN_MOTION_DOT":"-0.00065954","DECAY_DATE":null,"COUNTRY_CODE":"US","OBJECT_ID":"2021-125AT","REF_FRAME":"TEME","INCLINATION":"53.2185","CENTER_NAME":"EARTH","LAUNCH_DATE":"2021-12-18","PERIOD":"91.531","PERIAPSIS":"347.977","TLE_LINE1":"1 50197U 21125AT  22035.58335648 -.00065954  00000-0 -46830-3 0  9992","ECCENTRICITY":"0.00024810","MEAN_MOTION_DDOT":"0.0000000000000","RCS_SIZE":"MEDIUM","ELEMENT_SET_NO":"999","OBJECT_NAME":"STARLINK-3267","BSTAR":"-0.00046830000000","EPHEMERIS_TYPE":"0","EPOCH":"2022-02-04T14:00:01.999872","OBJECT_TYPE":"PAYLOAD","CLASSIFICATION_TYPE":"U","MEAN_ANOMALY":"342.7512","ARG_OF_PERICENTER":"24.4665","TIME_SYSTEM":"UTC"},{"RCS_SIZE":"LARGE","OBJECT_NAME":"STARLINK-3264","ELEMENT_SET_NO":"999","EPHEMERIS_TYPE":"0","BSTAR":"-0.00094323000000","ECCENTRICITY":"0.00023720","MEAN_MOTION_DDOT":"0.0000000000000","TIME_SYSTEM":"UTC","ARG_OF_PERICENTER":"17.9941","OBJECT_TYPE":"PAYLOAD","EPOCH":"2022-02-04T20:00:01.000224","CLASSIFICATION_TYPE":"U","MEAN_ANOMALY":"329.6303","MEAN_MOTION_DOT":"-0.00131187","SEMIMAJOR_AXIS":"6727.788","NORAD_CAT_ID":"50198","MEAN_ELEMENT_THEORY":"SGP4","GP_ID":"195308974","DECAY_DATE":null,"APOAPSIS":"351.249","FILE":"3292140","MEAN_MOTION":"15.73237669","TLE_LINE2":"2 50198  53.2171 126.4800 0002372  17.9941 329.6303 15.73237669 10433","REV_AT_EPOCH":"1043","RA_OF_ASC_NODE":"126.4800","SITE":"AFWTR","PERIAPSIS":"348.057","PERIOD":"91.531","LAUNCH_DATE":"2021-12-18","TLE_LINE1":"1 50198U 21125AU  22035.83334491 -.00131187  00000-0 -94323-3 0  9998","REF_FRAME":"TEME","OBJECT_ID":"2021-125AU","COUNTRY_CODE":"US","CENTER_NAME":"EARTH","INCLINATION":"53.2171"},{"ARG_OF_PERICENTER":"11.1751","TIME_SYSTEM":"UTC","MEAN_ANOMALY":"9.1112","EPOCH":"2022-02-04T14:00:01.999872","OBJECT_TYPE":"PAYLOAD","CLASSIFICATION_TYPE":"U","BSTAR":"-0.00056811000000","EPHEMERIS_TYPE":"0","OBJECT_NAME":"STARLINK-3270","RCS_SIZE":"LARGE","ELEMENT_SET_NO":"999","MEAN_MOTION_DDOT":"0.0000000000000","ECCENTRICITY":"0.00029050","TLE_LINE1":"1 50199U 21125AV  22035.58335648 -.00079814  00000-0 -56811-3 0  9994","LAUNCH_DATE":"2021-12-18","PERIOD":"91.530","PERIAPSIS":"347.644","INCLINATION":"53.2166","CENTER_NAME":"EARTH","COUNTRY_CODE":"US","OBJECT_ID":"2021-125AV","REF_FRAME":"TEME","DECAY_DATE":null,"MEAN_ELEMENT_THEORY":"SGP4","GP_ID":"195301948","NORAD_CAT_ID":"50199","SEMIMAJOR_AXIS":"6727.733","MEAN_MOTION_DOT":"-0.00079814","SITE":"AFWTR","RA_OF_ASC_NODE":"127.6967","REV_AT_EPOCH":"370","TLE_LINE2":"2 50199  53.2166 127.6967 0002905  11.1751   9.1112 15.73256833  3706","FILE":"3291889","MEAN_MOTION":"15.73256833","APOAPSIS":"351.553"}];
